0 MAQSAT/ARIANE 5
1 25503U 98059A   13281.79178098 -.00000028  00000-0  49677-2 0  2461
2 25503 007.4275 045.1494 7004513 265.1606 021.7745 02.24568203122817
0 MAQSAT/ARIANE 5
1 25503U 98059A   13283.15064691 -.00000019  00000-0  62441-2 0  2471
2 25503 007.4283 044.7085 7004274 266.0475 040.3376 02.24568251122848
0 MAQSAT/ARIANE 5
1 25503U 98059A   13285.75343008  .00000024  00000-0  75480-2 0  2484
2 25503 007.4295 043.8638 7003834 267.7460 344.5367 02.24568435122908
0 MAQSAT/ARIANE 5
1 25503U 98059A   13286.78642208  .00000020  00000-0  53837-2 0  2491
2 25503 007.4299 043.5307 7003776 268.4173 099.6482 02.24568838122921
0 MAQSAT/ARIANE 5
1 25503U 98059A   13288.08192690  .00000007  00000-0  25758-2 0  2509
2 25503 007.4304 043.1106 7003658 269.2620 066.9867 02.24569334122955
0 MAQSAT/ARIANE 5
1 25503U 98059A   13290.23820534 -.00000065  00000-0 -37518-2 0  2518
2 25503 007.4312 042.4125 7003486 270.6666 010.2110 02.24570178123000
0 MAQSAT/ARIANE 5
1 25503U 98059A   13292.08730095 -.00000125  00000-0 -60079-2 0  2521
2 25503 007.4319 041.8137 7003264 271.8709 065.1023 02.24570394123044
0 MAQSAT/ARIANE 5
1 25503U 98059A   13293.36757760 -.00000138  00000-0 -44949-2 0  2534
2 25503 007.4323 041.3971 7003090 272.7069 020.1401 02.24570069123079
0 MAQSAT/ARIANE 5
1 25503U 98059A   13294.65404037 -.00000147  00000-0 -35066-2 0  2544
2 25503 007.4328 040.9818 7002997 273.5432 340.1775 02.24569866123103
